start=new Date('2022-07-02T00:00:00.000Z').valueOf();
sats=[{"MEAN_MOTION_DOT":"0.00001856","CENTER_NAME":"EARTH","DECAY_DATE":null,"REF_FRAME":"TEME","APOAPSIS":"548.241","GP_ID":"207207618","LAUNCH_DATE":"2020-03-18","PERIAPSIS":"546.240","TLE_LINE2":"2 45381  53.0570  76.1078 0001445  87.8943 272.2212 15.06391183126896","COUNTRY_CODE":"US","RA_OF_ASC_NODE":"76.1078","MEAN_MOTION_DDOT":"0.0000000000000","INCLINATION":"53.0570","ARG_OF_PERICENTER":"87.8943","EPHEMERIS_TYPE":"0","NORAD_CAT_ID":"45381","PERIOD":"95.593","BSTAR":"0.00014350000000","REV_AT_EPOCH":"12689","SITE":"AFETR","OBJECT_NAME":"STARLINK-1258","RCS_SIZE":"LARGE","CLASSIFICATION_TYPE":"U","OBJECT_TYPE":"PAYLOAD","ELEMENT_SET_NO":"999","MEAN_ANOMALY":"272.2212","OBJECT_ID":"2020-019X","SEMIMAJOR_AXIS":"6925.376","ECCENTRICITY":"0.00014450","EPOCH":"2022-07-01T02:50:10.729536","TLE_LINE1":"1 45381U 20019X   22182.11817974  .00001856  00000-0  14350-3 0  9992","TIME_SYSTEM":"UTC","MEAN_ELEMENT_THEORY":"SGP4","MEAN_MOTION":"15.06391183","FILE":"3506285"},{"ARG_OF_PERICENTER":"72.3128","REV_AT_EPOCH":"12676","BSTAR":"0.00002134100000","EPHEMERIS_TYPE":"0","PERIOD":"95.592","NORAD_CAT_ID":"45382","OBJECT_NAME":"STARLINK-1264","SITE":"AFETR","RCS_SIZE":"LARGE","CLASSIFICATION_TYPE":"U","MEAN_MOTION_DOT":"0.00000036","GP_ID":"207207869","DECAY_DATE":null,"CENTER_NAME":"EARTH","APOAPSIS":"548.254","REF_FRAME":"TEME","TLE_LINE2":"2 45382  53.0540  74.7062 0001490  72.3128 287.8024 15.06397090126767","COUNTRY_CODE":"US","LAUNCH_DATE":"2020-03-18","PERIAPSIS":"546.191","MEAN_MOTION_DDOT":"0.0000000000000","RA_OF_ASC_NODE":"74.7062","INCLINATION":"53.0540","TIME_SYSTEM":"UTC","TLE_LINE1":"1 45382U 20019Y   22182.42684315  .00000036  00000-0  21341-4 0  9996","MEAN_ELEMENT_THEORY":"SGP4","MEAN_MOTION":"15.06397090","FILE":"3506285","OBJECT_TYPE":"PAYLOAD","ELEMENT_SET_NO":"999","MEAN_ANOMALY":"287.8024","EPOCH":"2022-07-01T10:14:39.248160","OBJECT_ID":"2020-019Y","SEMIMAJOR_AXIS":"6925.357","ECCENTRICITY":"0.00014900"},{"CENTER_NAME":"EARTH","DECAY_DATE":null,"APOAPSIS":"548.409","REF_FRAME":"TEME","GP_ID":"207206617","MEAN_MOTION_DOT":"0.00002857","RA_OF_ASC_NODE":"76.1482","MEAN_MOTION_DDOT":"0.0000000000000","INCLINATION":"53.0568","LAUNCH_DATE":"2020-03-18","PERIAPSIS":"546.028","TLE_LINE2":"2 45383  53.0568  76.1482 0001719  87.3579 272.7607 15.06398469126895","COUNTRY_CODE":"US","ARG_OF_PERICENTER":"87.3579","SITE":"AFETR","OBJECT_NAME":"STARLINK-1266","RCS_SIZE":"LARGE","CLASSIFICATION_TYPE":"U","EPHEMERIS_TYPE":"0","PERIOD":"95.592","NORAD_CAT_ID":"45383","BSTAR":"0.00021061000000","REV_AT_EPOCH":"12689","OBJECT_TYPE":"PAYLOAD","OBJECT_ID":"2020-019Z","ECCENTRICITY":"0.00017190","SEMIMAJOR_AXIS":"6925.353","EPOCH":"2022-07-01T02:39:34.520544","ELEMENT_SET_NO":"999","MEAN_ANOMALY":"272.7607","MEAN_ELEMENT_THEORY":"SGP4","TLE_LINE1":"1 45383U 20019Z   22182.11081621  .00002857  00000-0  21061-3 0  9995","TIME_SYSTEM":"UTC","FILE":"3506285","MEAN_MOTION":"15.06398469"},{"MEAN_ELEMENT_THEORY":"SGP4","TIME_SYSTEM":"UTC","TLE_LINE1":"1 45384U 20019AA  22182.49689757  .00002111  00000-0  16056-3 0  9992","FILE":"3506285","MEAN_MOTION":"15.06396524","OBJECT_TYPE":"PAYLOAD","EPOCH":"2022-07-01T11:55:31.950048","ECCENTRICITY":"0.00015370","SEMIMAJOR_AXIS":"6925.359","OBJECT_ID":"2020-019AA","MEAN_ANOMALY":"282.9111","ELEMENT_SET_NO":"999","ARG_OF_PERICENTER":"77.2049","CLASSIFICATION_TYPE":"U","SITE":"AFETR","OBJECT_NAME":"STARLINK-1267","RCS_SIZE":"LARGE","BSTAR":"0.00016056000000","REV_AT_EPOCH":"12695","NORAD_CAT_ID":"45384","PERIOD":"95.592","EPHEMERIS_TYPE":"0","GP_ID":"207206867","REF_FRAME":"TEME","APOAPSIS":"548.289","DECAY_DATE":null,"CENTER_NAME":"EARTH","MEAN_MOTION_DOT":"0.00002111","INCLINATION":"53.0564","MEAN_MOTION_DDOT":"0.0000000000000","RA_OF_ASC_NODE":"74.4031","COUNTRY_CODE":"US","TLE_LINE2":"2 45384  53.0564  74.4031 0001537  77.2049 282.9111 15.06396524126951","PERIAPSIS":"546.160","LAUNCH_DATE":"2020-03-18"},{"MEAN_MOTION_DOT":"0.00002218","GP_ID":"207207118","REF_FRAME":"TEME","APOAPSIS":"548.218","CENTER_NAME":"EARTH","DECAY_DATE":null,"COUNTRY_CODE":"US","TLE_LINE2":"2 45386  53.0560  74.6936 0001482  71.0385 289.0765 15.06407287126940","PERIAPSIS":"546.165","LAUNCH_DATE":"2020-03-18","INCLINATION":"53.0560","MEAN_MOTION_DDOT":"0.0000000000000","RA_OF_ASC_NODE":"74.6936","ARG_OF_PERICENTER":"71.0385","REV_AT_EPOCH":"12694","BSTAR":"0.00016773000000","PERIOD":"95.592","NORAD_CAT_ID":"45386","EPHEMERIS_TYPE":"0","CLASSIFICATION_TYPE":"U","SITE":"AFETR","RCS_SIZE":"LARGE","OBJECT_NAME":"STARLINK-1272","OBJECT_TYPE":"PAYLOAD","MEAN_ANOMALY":"289.0765","ELEMENT_SET_NO":"999","EPOCH":"2022-07-01T10:26:37.997664","SEMIMAJOR_AXIS":"6925.326","ECCENTRICITY":"0.00014820","OBJECT_ID":"2020-019AC","TIME_SYSTEM":"UTC","TLE_LINE1":"1 45386U 20019AC  22182.43516201  .00002218  00000-0  16773-3 0  9995","MEAN_ELEMENT_THEORY":"SGP4","MEAN_MOTION":"15.06407287","FILE":"3506285"},{"MEAN_ANOMALY":"284.5328","ELEMENT_SET_NO":"999","EPOCH":"2022-07-01T12:34:01.245792","ECCENTRICITY":"0.00017940","SEMIMAJOR_AXIS":"6925.372","OBJECT_ID":"2020-019AD","OBJECT_TYPE":"PAYLOAD","MEAN_MOTION":"15.06392300","FILE":"3506285","TIME_SYSTEM":"UTC","TLE_LINE1":"1 45387U 20019AD  22182.52362553  .00001549  00000-0  12287-3 0  9997","MEAN_ELEMENT_THEORY":"SGP4","COUNTRY_CODE":"US","TLE_LINE2":"2 45387  53.0552  74.2815 0001794  75.5860 284.5328 15.06392300126952","PERIAPSIS":"545.995","LAUNCH_DATE":"2020-03-18","INCLINATION":"53.0552","RA_OF_ASC_NODE":"74.2815","MEAN_MOTION_DDOT":"0.0000000000000","MEAN_MOTION_DOT":"0.00001549","GP_ID":"207207369","APOAPSIS":"548.480","REF_FRAME":"TEME","DECAY_DATE":null,"CENTER_NAME":"EARTH","REV_AT_EPOCH":"12695","BSTAR":"0.00012287000000","PERIOD":"95.593","NORAD_CAT_ID":"45387","EPHEMERIS_TYPE":"0","CLASSIFICATION_TYPE":"U","SITE":"AFETR","RCS_SIZE":"LARGE","OBJECT_NAME":"STARLINK-1274","ARG_OF_PERICENTER":"75.5860"},{"BSTAR":"-0.00000115810000","REV_AT_EPOCH":"12666","EPHEMERIS_TYPE":"0","PERIOD":"95.593","NORAD_CAT_ID":"45388","SITE":"AFETR","OBJECT_NAME":"STARLINK-1280","RCS_SIZE":"LARGE","CLASSIFICATION_TYPE":"U","ARG_OF_PERICENTER":"74.5513","COUNTRY_CODE":"US","TLE_LINE2":"2 45388  53.0555  94.4191 0001479  74.5513 285.5640 15.06390620126660","LAUNCH_DATE":"2020-03-18","PERIAPSIS":"546.218","RA_OF_ASC_NODE":"94.4191","MEAN_MOTION_DDOT":"0.0000000000000","INCLINATION":"53.0555","MEAN_MOTION_DOT":"-0.00000299","GP_ID":"207206117","DECAY_DATE":null,"CENTER_NAME":"EARTH","APOAPSIS":"548.267","REF_FRAME":"TEME","MEAN_MOTION":"15.06390620","FILE":"3506285","TIME_SYSTEM":"UTC","TLE_LINE1":"1 45388U 20019AE  22182.49229834 -.00000299  00000-0 -11581-5 0  9999","MEAN_ELEMENT_THEORY":"SGP4","ELEMENT_SET_NO":"999","MEAN_ANOMALY":"285.5640","EPOCH":"2022-07-01T11:48:54.576576","OBJECT_ID":"2020-019AE","SEMIMAJOR_AXIS":"6925.377","ECCENTRICITY":"0.00014790","OBJECT_TYPE":"PAYLOAD"},{"OBJECT_TYPE":"PAYLOAD","MEAN_ANOMALY":"293.7921","ELEMENT_SET_NO":"999","ECCENTRICITY":"0.00018360","SEMIMAJOR_AXIS":"6925.373","OBJECT_ID":"2020-019AF","EPOCH":"2022-07-01T09:44:11.072544","TLE_LINE1":"1 45389U 20019AF  22182.40568371 -.00000138  00000-0  96189-5 0  9991","TIME_SYSTEM":"UTC","MEAN_ELEMENT_THEORY":"SGP4","MEAN_MOTION":"15.06391988","FILE":"3506285","MEAN_MOTION_DOT":"-0.00000138","APOAPSIS":"548.510","REF_FRAME":"TEME","CENTER_NAME":"EARTH","DECAY_DATE":null,"GP_ID":"207206367","PERIAPSIS":"545.967","LAUNCH_DATE":"2020-03-18","COUNTRY_CODE":"US","TLE_LINE2":"2 45389  53.0553  74.8259 0001836  66.3260 293.7921 15.06391988126943","INCLINATION":"53.0553","MEAN_MOTION_DDOT":"0.0000000000000","RA_OF_ASC_NODE":"74.8259","ARG_OF_PERICENTER":"66.3260","NORAD_CAT_ID":"45389","PERIOD":"95.593","EPHEMERIS_TYPE":"0","BSTAR":"0.00000961890000","REV_AT_EPOCH":"12694","CLASSIFICATION_TYPE":"U","SITE":"AFETR","RCS_SIZE":"LARGE","OBJECT_NAME":"STARLINK-1283"},{"OBJECT_TYPE":"PAYLOAD","ECCENTRICITY":"0.00017640","SEMIMAJOR_AXIS":"6925.368","OBJECT_ID":"2020-019AG","EPOCH":"2022-07-01T02:44:51.777024","MEAN_ANOMALY":"289.8189","ELEMENT_SET_NO":"999","MEAN_ELEMENT_THEORY":"SGP4","TLE_LINE1":"1 45390U 20019AG  22182.11448816  .00002437  00000-0  18247-3 0  9992","TIME_SYSTEM":"UTC","FILE":"3506285","MEAN_MOTION":"15.06393647","APOAPSIS":"548.455","REF_FRAME":"TEME","DECAY_DATE":null,"CENTER_NAME":"EARTH","GP_ID":"207207619","MEAN_MOTION_DOT":"0.00002437","INCLINATION":"53.0542","RA_OF_ASC_NODE":"76.1136","MEAN_MOTION_DDOT":"0.0000000000000","PERIAPSIS":"546.011","LAUNCH_DATE":"2020-03-18","COUNTRY_CODE":"US","TLE_LINE2":"2 45390  53.0542  76.1136 0001764  70.2990 289.8189 15.06393647126896","ARG_OF_PERICENTER":"70.2990","CLASSIFICATION_TYPE":"U","OBJECT_NAME":"STARLINK-1284","SITE":"AFETR","RCS_SIZE":"LARGE","PERIOD":"95.593","NORAD_CAT_ID":"45390","EPHEMERIS_TYPE":"0","BSTAR":"0.00018247000000","REV_AT_EPOCH":"12689"},{"REV_AT_EPOCH":"12666","BSTAR":"-0.00002822800000","EPHEMERIS_TYPE":"0","NORAD_CAT_ID":"45391","PERIOD":"95.593","SITE":"AFETR","RCS_SIZE":"LARGE","OBJECT_NAME":"STARLINK-1289","CLASSIFICATION_TYPE":"U","ARG_OF_PERICENTER":"78.9908","TLE_LINE2":"2 45391  53.0563  74.8613 0001531  78.9908 281.1253 15.06389679126663","COUNTRY_CODE":"US","LAUNCH_DATE":"2020-03-18","PERIAPSIS":"546.185","RA_OF_ASC_NODE":"74.8613","MEAN_MOTION_DDOT":"0.0000000000000","INCLINATION":"53.0563","MEAN_MOTION_DOT":"-0.00000702","GP_ID":"207207870","DECAY_DATE":null,"CENTER_NAME":"EARTH","REF_FRAME":"TEME","APOAPSIS":"548.305","MEAN_MOTION":"15.06389679","FILE":"3506285","TIME_SYSTEM":"UTC","TLE_LINE1":"1 45391U 20019AH  22182.39367928 -.00000702  00000-0 -28228-4 0  9993","MEAN_ELEMENT_THEORY":"SGP4","ELEMENT_SET_NO":"999","MEAN_ANOMALY":"281.1253","EPOCH":"2022-07-01T09:26:53.889792","OBJECT_ID":"2020-019AH","ECCENTRICITY":"0.00015310","SEMIMAJOR_AXIS":"6925.380","OBJECT_TYPE":"PAYLOAD"}];
